PICO-02A021             
1 60538U 24149BY  26158.71403227  .00006050  00000+0  45210-3 0  9995
2 60538  97.6720 237.6275 0005617  54.4244 305.7504 15.03153848 98312
ICEYE-X43               
1 60539U 24149BZ  26159.22073792  .00003894  00000+0  32142-3 0  9996
2 60539  97.6761 236.3105 0007694 111.0411 249.1636 14.99552275 98777
HAWK-10A                
1 60540U 24149CA  26159.20983002  .00001725  00000+0  15692-3 0  9992
2 60540  97.6889 235.2753 0004782 100.7896 259.3864 14.96482198 98649
UMBRA-09                
1 60541U 24149CB  26159.16802068  .00011219  00000+0  55798-3 0  9990
2 60541  97.6957 246.2217 0000170  37.1530 322.9715 15.17801082 99350
QPS-SAR-8 (AMATERU-IV)  
1 60542U 24149CC  26159.21254187  .00004874  00000+0  35662-3 0  9997
2 60542  97.6666 238.4383 0004877 126.3974 233.7702 15.04050297 98923
ARCTIC WEATHER SATELLITE
1 60543U 24149CD  26159.15361380  .00000926  00000+0  10212-3 0  9993
2 60543  97.6807 229.8773 0003355 121.8072 238.3473 14.89793584 97950
CAPELLA-15 (ACADIA-5)   
1 60544U 24149CE  26159.20403744  .00006040  00000+0  59469-3 0  9991
2 60544  97.6764 232.3330 0005194 107.0472 253.1317 14.92412783 98512
HAWK-10B                
1 60545U 24149CF  26159.20967794  .00001790  00000+0  16267-3 0  9998
2 60545  97.6809 234.6394 0006634 117.7927 242.3968 14.96483593 98648
ICEYE-X39               
1 60546U 24149CG  26159.20399029  .00002991  00000+0  24622-3 0  9997
2 60546  97.6760 236.3507 0004349 142.1096 218.0434 14.99841629 98773
UMBRA-10                
1 60547U 24149CH  26159.23348246  .00013142  00000+0  65339-3 0  9996
2 60547  97.6972 246.3152 0001199  73.8529 286.2836 15.17772055 99374
ICEYE-X33               
1 60548U 24149CJ  26159.16892653  .00003779  00000+0  30169-3 0  9993
2 60548  97.7249 238.3604 0001327 108.1779 251.9589 15.00879551 98855
ICEYE-X40               
1 60549U 24149CK  26159.21768536  .00001402  00000+0  12391-3 0  9990
2 60549  97.6802 235.8575 0006265 107.4869 252.7039 14.97904725 98730
SATELIOT_1              
1 60550U 24149CL  26159.20961892  .00002180  00000+0  18935-3 0  9995
2 60550  97.6735 235.2572 0007837 105.7760 254.4327 14.98027203 98721
BRO-14                  
1 60551U 24149CM  26159.16666645  .00001307  00000+0  12111-3 0  9999
2 60551  97.6877 235.1063 0008150 121.0993 239.1029 14.96157876 98649
SATELIOT_3              
1 60552U 24149CN  26159.18532827  .00001541  00000+0  13535-3 0  9997
2 60552  97.6826 236.0171 0006364 106.6627 253.5295 14.98025117 98731
BRO-15                  
1 60553U 24149CP  26159.14896383  .00001221  00000+0  11353-3 0  9995
2 60553  97.6801 234.6989 0009448 115.3697 244.8503 14.96124047 98652
UM5-RIBAT               
1 60554U 24149CQ  26159.13953396  .00002896  00000+0  23134-3 0  9992
2 60554  97.6636 237.0620 0003858  75.9538 284.2115 15.01025306 98834
UM5-EOSAT               
1 60555U 24149CR  26159.17523246  .00003943  00000+0  30958-3 0  9990
2 60555  97.6677 238.0198 0008573 141.3042 218.8798 15.01459080 98861
LASARSAT                
1 62391U 24247Q   26158.86615921  .00034284  00000+0  69568-3 0  9997
2 62391  44.9755 314.5710 0008332 280.1166  79.8784 15.45786656 81878
CROCUBE                 
1 62394U 24247T   26159.26243220  .00033002  00000+0  62905-3 0  9999
2 62394  44.9728 309.8218 0008195 285.5396  74.4590 15.47618996 81961
TEVEL2-4                
1 63213U 25052D   26158.66121393  .00020438  00000+0  61719-3 0  9995
2 63213  97.3922  55.0407 0004354 120.1889 239.9786 15.34277122 68658
TEVEL2-5                
1 63214U 25052E   26158.68065787  .00020067  00000+0  60926-3 0  9999
2 63214  97.3908  55.0087 0004329 122.9986 237.1673 15.34110180 68652
TEVEL2-6                
1 63215U 25052F   26159.21458766  .00015702  00000+0  47787-3 0  9993
2 63215  97.3912  55.5275 0004415 121.5489 238.6185 15.34088018 68738
TEVEL2-1                
1 63217U 25052H   26159.24053253  .00015233  00000+0  47132-3 0  9993
2 63217  97.3889  55.1881 0004189 130.0273 230.1338 15.33568729 68723
TEVEL2-3                
1 63218U 25052J   26159.23549191  .00015170  00000+0  46859-3 0  9999
2 63218  97.3889  55.2041 0004278 131.4338 228.7273 15.33621807 68727
TEVEL2-2                
1 63219U 25052K   26159.17564551  .00015378  00000+0  47571-3 0  9992
2 63219  97.3886  55.1258 0004196 132.1284 228.0316 15.33574364 68716
TEVEL2-9                
1 63237U 25052AD  26159.20683055  .00013734  00000+0  45172-3 0  9996
2 63237  97.3948  54.5513 0006908 156.1696 203.9867 15.31621079 68658
TEVEL2-7                
1 63238U 25052AE  26159.24603484  .00013747  00000+0  45614-3 0  9994
2 63238  97.3948  54.5102 0007004 156.9865 203.1691 15.31335451 68650
TEVEL2-8                
1 63239U 25052AF  26158.66608190  .00016862  00000+0  55924-3 0  9995
2 63239  97.3959  53.9116 0007087 159.3997 200.7532 15.31303224 68565
FORESAIL-1 PRIME        
1 66778U 25276DS  26159.16737006  .00004435  00000+0  21751-3 0  9993
2 66778  97.4199 232.6039 0003713 122.1307 238.0288 15.18619338 29030
