OBJECT_NAME,OBJECT_ID,EPOCH,MEAN_MOTION,ECCENTRICITY,INCLINATION,RA_OF_ASC_NODE,ARG_OF_PERICENTER,MEAN_ANOMALY,EPHEMERIS_TYPE,CLASSIFICATION_TYPE,NORAD_CAT_ID,ELEMENT_SET_NO,REV_AT_EPOCH,BSTAR,MEAN_MOTION_DOT,MEAN_MOTION_DDOT
PICO-02A021,2024-149BY,2026-06-07T17:08:12.388128,15.03153848,.00056171,97.6720,237.6275,54.4244,305.7504,0,U,60538,999,9831,.45210099E-3,.605E-4,0
ICEYE-X43,2024-149BZ,2026-06-08T05:17:51.756288,14.99552275,.00076949,97.6761,236.3105,111.0411,249.1636,0,U,60539,999,9877,.32141905E-3,.3894E-4,0
HAWK-10A,2024-149CA,2026-06-08T05:02:09.313728,14.96482198,.00047829,97.6889,235.2753,100.7896,259.3864,0,U,60540,999,9864,.15691611E-3,.1725E-4,0
UMBRA-09,2024-149CB,2026-06-08T04:01:56.986752,15.17801082,.00001703,97.6957,246.2217,37.1530,322.9715,0,U,60541,999,9935,.55798158E-3,.11219E-3,0
QPS-SAR-8 (AMATERU-IV),2024-149CC,2026-06-08T05:06:03.617568,15.04050297,.00048771,97.6666,238.4383,126.3974,233.7702,0,U,60542,999,9892,.35662022E-3,.4874E-4,0
ARCTIC WEATHER SATELLITE,2024-149CD,2026-06-08T03:41:12.232320,14.89793584,.00033551,97.6807,229.8773,121.8072,238.3473,0,U,60543,999,9795,.10211692E-3,.926E-5,0
CAPELLA-15 (ACADIA-5),2024-149CE,2026-06-08T04:53:48.834816,14.92412783,.00051945,97.6764,232.3330,107.0472,253.1317,0,U,60544,999,9851,.59469408E-3,.604E-4,0
HAWK-10B,2024-149CF,2026-06-08T05:01:56.174016,14.96483593,.00066348,97.6809,234.6394,117.7927,242.3968,0,U,60545,999,9864,.16267469E-3,.179E-4,0
ICEYE-X39,2024-149CG,2026-06-08T04:53:44.761056,14.99841629,.0004349,97.6760,236.3507,142.1096,218.0434,0,U,60546,999,9877,.24621939E-3,.2991E-4,0
UMBRA-10,2024-149CH,2026-06-08T05:36:12.884544,15.17772055,.00011995,97.6972,246.3152,73.8529,286.2836,0,U,60547,999,9937,.65338878E-3,.13142E-3,0
ICEYE-X33,2024-149CJ,2026-06-08T04:03:15.252192,15.00879551,.00013276,97.7249,238.3604,108.1779,251.9589,0,U,60548,999,9885,.30168597E-3,.3779E-4,0
ICEYE-X40,2024-149CK,2026-06-08T05:13:28.015104,14.97904725,.00062657,97.6802,235.8575,107.4869,252.7039,0,U,60549,999,9873,.12391266E-3,.1402E-4,0
SATELIOT_1,2024-149CL,2026-06-08T05:01:51.074688,14.98027203,.00078374,97.6735,235.2572,105.7760,254.4327,0,U,60550,999,9872,.18935422E-3,.218E-4,0
BRO-14,2024-149CM,2026-06-08T03:59:59.981280,14.96157876,.00081502,97.6877,235.1063,121.0993,239.1029,0,U,60551,999,9864,.12111499E-3,.1307E-4,0
SATELIOT_3,2024-149CN,2026-06-08T04:26:52.362528,14.98025117,.0006364,97.6826,236.0171,106.6627,253.5295,0,U,60552,999,9873,.13534647E-3,.1541E-4,0
BRO-15,2024-149CP,2026-06-08T03:34:30.474912,14.96124047,.00094488,97.6801,234.6989,115.3697,244.8503,0,U,60553,999,9865,.11352906E-3,.1221E-4,0
UM5-RIBAT,2024-149CQ,2026-06-08T03:20:55.734144,15.01025306,.00038584,97.6636,237.0620,75.9538,284.2115,0,U,60554,999,9883,.2313393E-3,.2896E-4,0
UM5-EOSAT,2024-149CR,2026-06-08T04:12:20.084544,15.01459080,.00085734,97.6677,238.0198,141.3042,218.8798,0,U,60555,999,9886,.30958211E-3,.3943E-4,0
LASARSAT,2024-247Q,2026-06-07T20:47:16.155744,15.45786656,.00083327,44.9755,314.5710,280.1166,79.8784,0,U,62391,999,8187,.69568469E-3,.34284E-3,0
CROCUBE,2024-247T,2026-06-08T06:17:54.142080,15.47618996,.00081951,44.9728,309.8218,285.5396,74.4590,0,U,62394,999,8196,.62905074E-3,.33002E-3,0
TEVEL2-4,2025-052D,2026-06-07T15:52:08.883552,15.34277122,.00043543,97.3922,55.0407,120.1889,239.9786,0,U,63213,999,6865,.6171933E-3,.20438E-3,0
TEVEL2-5,2025-052E,2026-06-07T16:20:08.839968,15.34110180,.00043296,97.3908,55.0087,122.9986,237.1673,0,U,63214,999,6865,.60926407E-3,.20067E-3,0
TEVEL2-6,2025-052F,2026-06-08T05:09:00.373824,15.34088018,.0004415,97.3912,55.5275,121.5489,238.6185,0,U,63215,999,6873,.47786553E-3,.15702E-3,0
TEVEL2-1,2025-052H,2026-06-08T05:46:22.010592,15.33568729,.00041892,97.3889,55.1881,130.0273,230.1338,0,U,63217,999,6872,.47131926E-3,.15233E-3,0
TEVEL2-3,2025-052J,2026-06-08T05:39:06.501024,15.33621807,.00042787,97.3889,55.2041,131.4338,228.7273,0,U,63218,999,6872,.46858956E-3,.1517E-3,0
TEVEL2-2,2025-052K,2026-06-08T04:12:55.772064,15.33574364,.00041967,97.3886,55.1258,132.1284,228.0316,0,U,63219,999,6871,.47570709E-3,.15378E-3,0
TEVEL2-9,2025-052AD,2026-06-08T04:57:50.159520,15.31621079,.00069086,97.3948,54.5513,156.1696,203.9867,0,U,63237,999,6865,.45171742E-3,.13734E-3,0
TEVEL2-7,2025-052AE,2026-06-08T05:54:17.410176,15.31335451,.00070046,97.3948,54.5102,156.9865,203.1691,0,U,63238,999,6865,.45613902E-3,.13747E-3,0
TEVEL2-8,2025-052AF,2026-06-07T15:59:09.476160,15.31303224,.00070879,97.3959,53.9116,159.3997,200.7532,0,U,63239,999,6856,.55923697E-3,.16862E-3,0
FORESAIL-1 PRIME,2025-276DS,2026-06-08T04:01:00.773184,15.18619338,.00037138,97.4199,232.6039,122.1307,238.0288,0,U,66778,999,2903,.21751493E-3,.4435E-4,0
